{
  "norad_id": 26107,
  "name": "ASIASTAR",
  "history": [
    {
      "epoch": "2026-05-05T18:48:55.375200Z",
      "apogee_km": 35809.38116333133,
      "perigee_km": 35764.492225876056,
      "latitude_deg": -1.931371342397099,
      "longitude_deg": 104.84801080942147,
      "height_km": 35808.03628759196,
      "semi_major_axis_km": 42165.0736946037,
      "eccentricity": 0.0005323,
      "inclination_deg": 9.0329,
      "raan_deg": 58.602,
      "arg_perigee_deg": 353.1982,
      "mean_anomaly_deg": 199.095,
      "mean_motion_rev_day": 1.00270566
    },
    {
      "epoch": "2026-05-06T20:44:51.160128Z",
      "apogee_km": 35809.46372594394,
      "perigee_km": 35764.7432718708,
      "latitude_deg": -6.081099360431744,
      "longitude_deg": 104.60778295309701,
      "height_km": 35802.72374998879,
      "semi_major_axis_km": 42165.24049890737,
      "eccentricity": 0.0005303,
      "inclination_deg": 9.0351,
      "raan_deg": 58.5907,
      "arg_perigee_deg": 354.5287,
      "mean_anomaly_deg": 227.8164,
      "mean_motion_rev_day": 1.00269971
    },
    {
      "epoch": "2026-05-07T17:01:00.846048Z",
      "apogee_km": 35809.44403440299,
      "perigee_km": 35765.03545961305,
      "latitude_deg": 1.9741711315283141,
      "longitude_deg": 105.16180183775025,
      "height_km": 35808.58572166177,
      "semi_major_axis_km": 42165.37674700803,
      "eccentricity": 0.0005266,
      "inclination_deg": 9.0369,
      "raan_deg": 58.5816,
      "arg_perigee_deg": 355.6043,
      "mean_anomaly_deg": 171.6154,
      "mean_motion_rev_day": 1.00269485
    },
    {
      "epoch": "2026-05-08T18:40:55.762752Z",
      "apogee_km": 35806.849282846226,
      "perigee_km": 35762.527720678765,
      "latitude_deg": -2.077450689695615,
      "longitude_deg": 104.81599285003334,
      "height_km": 35805.132439919864,
      "semi_major_axis_km": 42162.8255017625,
      "eccentricity": 0.0005256,
      "inclination_deg": 9.0389,
      "raan_deg": 58.5683,
      "arg_perigee_deg": 351.2457,
      "mean_anomaly_deg": 202.0188,
      "mean_motion_rev_day": 1.00278586
    },
    {
      "epoch": "2026-05-09T18:58:55.170048Z",
      "apogee_km": 35806.953848241574,
      "perigee_km": 35764.4189831798,
      "latitude_deg": -2.909983666747419,
      "longitude_deg": 104.76447035915523,
      "height_km": 35804.898131178685,
      "semi_major_axis_km": 42163.823415710685,
      "eccentricity": 0.0005044,
      "inclination_deg": 9.0413,
      "raan_deg": 58.558,
      "arg_perigee_deg": 353.2308,
      "mean_anomaly_deg": 205.55,
      "mean_motion_rev_day": 1.00275026
    }
  ]
}